{
"type": "FeatureCollection",
"name": "Geology2M_GSI",
"crs": { "type": "name", "properties": { "name": "urn:ogc:def:crs:OGC:1.3:CRS84" } },
"features": [
{ "type": "Feature", "properties": { "OBJECTID": 2959.0, "INDEX_": "KROL Gp.", "AGE_CODE": 91.0, "AGE": "NEOPROTEROZOIC", "SUPERGROUP": null, "GROUP_": "KROL", "GEOM_ID": 911.0, "STRATIGRAP": "911,KROL Gp.,NEOPROTEROZOIC" }, "geometry": { "type": "MultiPolygon", "coordinates": [ [ [ [ 78.04197269799721, 30.43772958696254, 0.0 ], [ 78.041822998193368, 30.437737751242459, 0.0 ], [ 78.041613669390543, 30.437741202749894, 0.0 ], [ 78.041404342339916, 30.437736157995325, 0.0 ], [ 78.041197015630686, 30.437721333057514, 0.0 ], [ 78.040993851793203, 30.437690054016379, 0.0 ], [ 78.040796125956788, 30.437631194428064, 0.0 ], [ 78.040602210731308, 30.437561930258553, 0.0 ], [ 78.040406343532055, 30.4374952079046, 0.0 ], [ 78.040217196904365, 30.437417703344142, 0.0 ], [ 78.040053659254099, 30.437310934362664, 0.0 ], [ 78.039971941405966, 30.437231077281183, 0.0 ], [ 78.035500920360917, 30.436117075065109, 0.0 ], [ 78.035500366508231, 30.436117239654696, 0.0 ], [ 78.035301945838825, 30.436171682917394, 0.0 ], [ 78.035102493404963, 30.436223589068415, 0.0 ], [ 78.034902647888288, 30.436274378545217, 0.0 ], [ 78.034702638312197, 30.43632494303186, 0.0 ], [ 78.034502947353928, 30.436376252126522, 0.0 ], [ 78.034304276594895, 30.436430466286261, 0.0 ], [ 78.034109469470678, 30.436495035995218, 0.0 ], [ 78.033903986771108, 30.436520799456627, 0.0 ], [ 78.033695446966135, 30.436534894893711, 0.0 ], [ 78.03349039978113, 30.436563179135327, 0.0 ], [ 78.033292317731252, 30.436620433370368, 0.0 ], [ 78.033095334413773, 30.436680815412046, 0.0 ], [ 78.032891669381641, 30.436708465500931, 0.0 ], [ 78.032577826251668, 30.436708859899756, 0.0 ], [ 78.032375105883176, 30.436747538132018, 0.0 ], [ 78.03217491734641, 30.436801122826388, 0.0 ], [ 78.031980840059632, 30.436866888129636, 0.0 ], [ 78.03179454433679, 30.436948713784421, 0.0 ], [ 78.031620391068088, 30.437049062722735, 0.0 ], [ 78.03146418773045, 30.437167550454273, 0.0 ], [ 78.031324856830921, 30.437303191186519, 0.0 ], [ 78.031203957720734, 30.437449521148, 0.0 ], [ 78.031096368371038, 30.437603984391085, 0.0 ], [ 78.030995143160595, 30.437762212277789, 0.0 ], [ 78.030893844541765, 30.437920069558192, 0.0 ], [ 78.030795058416444, 30.438079387162013, 0.0 ], [ 78.030698368381707, 30.438239859821085, 0.0 ], [ 78.03060682964832, 30.438393506679787, 0.0 ], [ 78.030498801225221, 30.438556750141291, 0.0 ], [ 78.030389477727326, 30.438709253242727, 0.0 ], [ 78.030260006789973, 30.438851396468451, 0.0 ], [ 78.03011019392919, 30.438978301964074, 0.0 ], [ 78.02994145605858, 30.439082613430205, 0.0 ], [ 78.029748991554953, 30.439154026503793, 0.0 ], [ 78.029548924552529, 30.43920339909825, 0.0 ], [ 78.029344595531001, 30.4392415180371, 0.0 ], [ 78.029139610650105, 30.439273121486202, 0.0 ], [ 78.028933006905959, 30.439296265754127, 0.0 ], [ 78.028726026998513, 30.439317776063749, 0.0 ], [ 78.028519687941127, 30.439340629905146, 0.0 ], [ 78.028318357580829, 30.439389454136027, 0.0 ], [ 78.028137819474765, 30.439477980462119, 0.0 ], [ 78.027969001424026, 30.439584872883255, 0.0 ], [ 78.027814931077771, 30.439705842024093, 0.0 ], [ 78.027664891658745, 30.439831631012119, 0.0 ], [ 78.027503616560395, 30.43994556556671, 0.0 ], [ 78.02734058586195, 30.44005835066104, 0.0 ], [ 78.027177043061315, 30.440171124759988, 0.0 ], [ 78.027012101451433, 30.440282241690401, 0.0 ], [ 78.026844865520729, 30.440390276918365, 0.0 ], [ 78.026674612578049, 30.440493735897881, 0.0 ], [ 78.026500369370282, 30.440591047123537, 0.0 ], [ 78.026321130517545, 30.440681594265232, 0.0 ], [ 78.026136809667307, 30.440765377137605, 0.0 ], [ 78.025948482970591, 30.440843527681331, 0.0 ], [ 78.02575731889651, 30.440916811110078, 0.0 ], [ 78.025564388057816, 30.440986507145777, 0.0 ], [ 78.025370860940555, 30.441053382864428, 0.0 ], [ 78.025176617607755, 30.441118542943805, 0.0 ], [ 78.024980670387535, 30.441180856529474, 0.0 ], [ 78.024783120300484, 30.441239808283708, 0.0 ], [ 78.024584078507218, 30.441294515164778, 0.0 ], [ 78.024383817650516, 30.441344465753065, 0.0 ], [ 78.024182456876957, 30.441388480498247, 0.0 ], [ 78.023979128518448, 30.441424323861458, 0.0 ], [ 78.023772696991287, 30.441450049074263, 0.0 ], [ 78.023564469765873, 30.441467532863523, 0.0 ], [ 78.023355688167641, 30.441477985824243, 0.0 ], [ 78.023147750487226, 30.441483137974505, 0.0 ], [ 78.022940079961032, 30.441479505109562, 0.0 ], [ 78.022732130071276, 30.441468256117425, 0.0 ], [ 78.022524136648883, 30.441452794378868, 0.0 ], [ 78.022316247573329, 30.441436744913823, 0.0 ], [ 78.022108519160724, 30.441420993677951, 0.0 ], [ 78.021900502478715, 30.441400728317273, 0.0 ], [ 78.021692461245223, 30.441378468179984, 0.0 ], [ 78.02148468162558, 30.441358799158817, 0.0 ], [ 78.02127750792846, 30.441344463385892, 0.0 ], [ 78.021071246490479, 30.441339381685232, 0.0 ], [ 78.020863862213261, 30.441357176186482, 0.0 ], [ 78.020660273461189, 30.441409926176636, 0.0 ], [ 78.020478668493851, 30.441491176433292, 0.0 ], [ 78.020349059814777, 30.441637222339061, 0.0 ], [ 78.020289998449726, 30.441810071183809, 0.0 ], [ 78.020292522861169, 30.44199045959806, 0.0 ], [ 78.020324349704282, 30.442168931247519, 0.0 ], [ 78.020433259241315, 30.442321978573975, 0.0 ], [ 78.020565406017155, 30.442462333659662, 0.0 ], [ 78.020702370060818, 30.442598513328448, 0.0 ], [ 78.020840732932726, 30.44273354256433, 0.0 ], [ 78.020975610272686, 30.442871077502346, 0.0 ], [ 78.021104722735018, 30.443013135716516, 0.0 ], [ 78.02123585567756, 30.443156051596713, 0.0 ], [ 78.021357797435854, 30.443304003181652, 0.0 ], [ 78.021456613608606, 30.443461029698952, 0.0 ], [ 78.0215305746745, 30.443627905115992, 0.0 ], [ 78.021596681041459, 30.443797926025344, 0.0 ], [ 78.021656480318285, 30.443970683199066, 0.0 ], [ 78.021711622247608, 30.444145181763286, 0.0 ], [ 78.021763396374027, 30.44432107963511, 0.0 ], [ 78.021813200897455, 30.44449730314405, 0.0 ], [ 78.021862578122793, 30.444673515976554, 0.0 ], [ 78.021912239328344, 30.444848849710485, 0.0 ], [ 78.021952435251194, 30.445026995494388, 0.0 ], [ 78.021985153381621, 30.445207112256959, 0.0 ], [ 78.022018313729063, 30.445386723282034, 0.0 ], [ 78.022060019495726, 30.445562908736971, 0.0 ], [ 78.022118088763975, 30.445733706295556, 0.0 ], [ 78.022207623387857, 30.445893253738102, 0.0 ], [ 78.022328100667394, 30.446041835761321, 0.0 ], [ 78.022458506228674, 30.446186433900206, 0.0 ], [ 78.02258438478718, 30.446331297381505, 0.0 ], [ 78.022721066129435, 30.44647138439425, 0.0 ], [ 78.022847763638183, 30.446614567352629, 0.0 ], [ 78.022939210404871, 30.446772975760531, 0.0 ], [ 78.022988998912055, 30.446952596544822, 0.0 ], [ 78.022992370471712, 30.447133300159294, 0.0 ], [ 78.022954125176341, 30.447308620252493, 0.0 ], [ 78.022889232319201, 30.447482593276924, 0.0 ], [ 78.022808302350967, 30.447651176107907, 0.0 ], [ 78.022716082638922, 30.447812483236007, 0.0 ], [ 78.02260860350053, 30.447968049030742, 0.0 ], [ 78.022488962474384, 30.448116983772614, 0.0 ], [ 78.022357022711262, 30.448255368674552, 0.0 ], [ 78.022206117610494, 30.448380908752796, 0.0 ], [ 78.022053884427805, 30.448505236941163, 0.0 ], [ 78.021918761731584, 30.448641701749683, 0.0 ], [ 78.021795284874216, 30.448790547239838, 0.0 ], [ 78.021689045502256, 30.44894732272985, 0.0 ], [ 78.02161733106422, 30.449112791126169, 0.0 ], [ 78.021633964779426, 30.449297490474873, 0.0 ], [ 78.021723825719803, 30.449457563383579, 0.0 ], [ 78.02184016228631, 30.449610631621663, 0.0 ], [ 78.021949779543803, 30.449765984757619, 0.0 ], [ 78.022021536522033, 30.449932587831089, 0.0 ], [ 78.022049615764345, 30.450113855706377, 0.0 ], [ 78.02204494456474, 30.450295408964582, 0.0 ], [ 78.021999557714906, 30.450469900831848, 0.0 ], [ 78.021929427063753, 30.450642128459386, 0.0 ], [ 78.0218605476486, 30.450812462877245, 0.0 ], [ 78.021786938358474, 30.450981286892723, 0.0 ], [ 78.021233735392997, 30.451280255080885, 0.0 ], [ 78.021032649852145, 30.45167865217611, 0.0 ], [ 78.020960911238873, 30.452164074199843, 0.0 ], [ 78.0208245325842, 30.452873710138565, 0.0 ], [ 78.020616255812456, 30.453141255608699, 0.0 ], [ 78.020328878327717, 30.453284506492565, 0.0 ], [ 78.019962485079972, 30.453278348181637, 0.0 ], [ 78.019337398790668, 30.453209981223409, 0.0 ], [ 78.017699242098146, 30.453241219820097, 0.0 ], [ 78.016571172366739, 30.453409627390297, 0.0 ], [ 78.01555816606141, 30.453733433041567, 0.0 ], [ 78.014401515302069, 30.454318488886049, 0.0 ], [ 78.013438866951432, 30.455221283132609, 0.0 ], [ 78.012828233407348, 30.456036690075553, 0.0 ], [ 78.012045215195215, 30.45756805643807, 0.0 ], [ 78.011456142919542, 30.458570041975811, 0.0 ], [ 78.010651525198199, 30.459366804722436, 0.0 ], [ 78.009889855772457, 30.459790295236292, 0.0 ], [ 78.009318743770933, 30.459966535005915, 0.0 ], [ 78.008517519826142, 30.460213582995092, 0.0 ], [ 78.008151057157406, 30.460194977280612, 0.0 ], [ 78.007533132000404, 30.460145111220708, 0.0 ], [ 78.006405048763355, 30.460263559308402, 0.0 ], [ 78.005147616071341, 30.460537414966641, 0.0 ], [ 78.004429021213952, 30.460923373096364, 0.0 ], [ 78.003681791624544, 30.46153960189795, 0.0 ], [ 78.002697423558288, 30.462591775544738, 0.0 ], [ 78.001569323077618, 30.463624972745244, 0.0 ], [ 78.000865070680504, 30.463942462374142, 0.0 ], [ 77.99999998466248, 30.464065057159221, 0.0 ], [ 77.999345903650905, 30.463970068156247, 0.0 ], [ 77.998735206935038, 30.464028699546301, 0.0 ], [ 77.998429950437625, 30.464410694709446, 0.0 ], [ 77.99836200240803, 30.465879975797797, 0.0 ], [ 77.997920980806839, 30.467878471593139, 0.0 ], [ 77.997378111088324, 30.468818653038458, 0.0 ], [ 77.997072759635216, 30.469847340823456, 0.0 ], [ 77.997174533363776, 30.470993339027256, 0.0 ], [ 77.997425559904926, 30.472200472632331, 0.0 ], [ 77.997082183030258, 30.47346711981325, 0.0 ], [ 77.996960047917213, 30.474636178438534, 0.0 ], [ 77.996952385826873, 30.475613067564215, 0.0 ], [ 77.996494592855441, 30.476194621513123, 0.0 ], [ 77.99660139776266, 30.47717111956301, 0.0 ], [ 77.996438345173729, 30.477670645368175, 0.0 ], [ 78.00265947500003, 30.483308739000051, 0.0 ], [ 78.041613341000073, 30.492324968000077, 0.0 ], [ 78.09629377400006, 30.451264258000069, 0.0 ], [ 78.04197269799721, 30.43772958696254, 0.0 ] ] ] ] } },
{ "type": "Feature", "properties": { "OBJECTID": 3461.0, "INDEX_": "BALIANA Gp.(BLAINI = MANJIR / INFRA KROL Fm.)", "AGE_CODE": 91.0, "AGE": "NEOPROTEROZOIC", "SUPERGROUP": null, "GROUP_": "BALIANA", "GEOM_ID": 912.0, "STRATIGRAP": "912,BALIANA Gp.(BLAINI = MANJIR / INFRA KROL Fm.),NEOPROTEROZOIC" }, "geometry": { "type": "MultiPolygon", "coordinates": [ [ [ [ 78.04197269799721, 30.43772958696254, 0.0 ], [ 78.039971941405966, 30.437231077281183, 0.0 ], [ 78.040053659254099, 30.437310934362664, 0.0 ], [ 78.040217196904365, 30.437417703344142, 0.0 ], [ 78.040406343532055, 30.4374952079046, 0.0 ], [ 78.040602210731308, 30.437561930258553, 0.0 ], [ 78.040796125956788, 30.437631194428064, 0.0 ], [ 78.040993851793203, 30.437690054016379, 0.0 ], [ 78.041197015630686, 30.437721333057514, 0.0 ], [ 78.041404342339916, 30.437736157995325, 0.0 ], [ 78.041613669390543, 30.437741202749894, 0.0 ], [ 78.041822998193368, 30.437737751242459, 0.0 ], [ 78.04197269799721, 30.43772958696254, 0.0 ] ] ], [ [ [ 77.997920980806839, 30.467878471593139, 0.0 ], [ 77.99836200240803, 30.465879975797797, 0.0 ], [ 77.998429950437625, 30.464410694709446, 0.0 ], [ 77.998735206935038, 30.464028699546301, 0.0 ], [ 77.999345903650905, 30.463970068156247, 0.0 ], [ 77.99999998466248, 30.464065057159221, 0.0 ], [ 78.000865070680504, 30.463942462374142, 0.0 ], [ 78.001569323077618, 30.463624972745244, 0.0 ], [ 78.002697423558288, 30.462591775544738, 0.0 ], [ 78.003681791624544, 30.46153960189795, 0.0 ], [ 78.004429021213952, 30.460923373096364, 0.0 ], [ 78.005147616071341, 30.460537414966641, 0.0 ], [ 78.006405048763355, 30.460263559308402, 0.0 ], [ 78.007533132000404, 30.460145111220708, 0.0 ], [ 78.008151057157406, 30.460194977280612, 0.0 ], [ 78.008517519826142, 30.460213582995092, 0.0 ], [ 78.009318743770933, 30.459966535005915, 0.0 ], [ 78.009889855772457, 30.459790295236292, 0.0 ], [ 78.010651525198199, 30.459366804722436, 0.0 ], [ 78.011456142919542, 30.458570041975811, 0.0 ], [ 78.012045215195215, 30.45756805643807, 0.0 ], [ 78.012828233407348, 30.456036690075553, 0.0 ], [ 78.013438866951432, 30.455221283132609, 0.0 ], [ 78.014401515302069, 30.454318488886049, 0.0 ], [ 78.01555816606141, 30.453733433041567, 0.0 ], [ 78.016571172366739, 30.453409627390297, 0.0 ], [ 78.017699242098146, 30.453241219820097, 0.0 ], [ 78.019337398790668, 30.453209981223409, 0.0 ], [ 78.019962485079972, 30.453278348181637, 0.0 ], [ 78.020328878327717, 30.453284506492565, 0.0 ], [ 78.020616255812456, 30.453141255608699, 0.0 ], [ 78.0208245325842, 30.452873710138565, 0.0 ], [ 78.020960911238873, 30.452164074199843, 0.0 ], [ 78.021032649852145, 30.45167865217611, 0.0 ], [ 78.021233735392997, 30.451280255080885, 0.0 ], [ 78.021786938358474, 30.450981286892723, 0.0 ], [ 78.0218605476486, 30.450812462877245, 0.0 ], [ 78.021929427063753, 30.450642128459386, 0.0 ], [ 78.021999557714906, 30.450469900831848, 0.0 ], [ 78.02204494456474, 30.450295408964582, 0.0 ], [ 78.022049615764345, 30.450113855706377, 0.0 ], [ 78.022021536522033, 30.449932587831089, 0.0 ], [ 78.021949779543803, 30.449765984757619, 0.0 ], [ 78.02184016228631, 30.449610631621663, 0.0 ], [ 78.021723825719803, 30.449457563383579, 0.0 ], [ 78.021633964779426, 30.449297490474873, 0.0 ], [ 78.02161733106422, 30.449112791126169, 0.0 ], [ 78.021689045502256, 30.44894732272985, 0.0 ], [ 78.021795284874216, 30.448790547239838, 0.0 ], [ 78.021918761731584, 30.448641701749683, 0.0 ], [ 78.022053884427805, 30.448505236941163, 0.0 ], [ 78.022206117610494, 30.448380908752796, 0.0 ], [ 78.022357022711262, 30.448255368674552, 0.0 ], [ 78.022488962474384, 30.448116983772614, 0.0 ], [ 78.02260860350053, 30.447968049030742, 0.0 ], [ 78.022716082638922, 30.447812483236007, 0.0 ], [ 78.022808302350967, 30.447651176107907, 0.0 ], [ 78.022889232319201, 30.447482593276924, 0.0 ], [ 78.022954125176341, 30.447308620252493, 0.0 ], [ 78.022992370471712, 30.447133300159294, 0.0 ], [ 78.022988998912055, 30.446952596544822, 0.0 ], [ 78.022939210404871, 30.446772975760531, 0.0 ], [ 78.022847763638183, 30.446614567352629, 0.0 ], [ 78.022721066129435, 30.44647138439425, 0.0 ], [ 78.02258438478718, 30.446331297381505, 0.0 ], [ 78.022458506228674, 30.446186433900206, 0.0 ], [ 78.022328100667394, 30.446041835761321, 0.0 ], [ 78.022207623387857, 30.445893253738102, 0.0 ], [ 78.022118088763975, 30.445733706295556, 0.0 ], [ 78.022060019495726, 30.445562908736971, 0.0 ], [ 78.022018313729063, 30.445386723282034, 0.0 ], [ 78.021985153381621, 30.445207112256959, 0.0 ], [ 78.021952435251194, 30.445026995494388, 0.0 ], [ 78.021912239328344, 30.444848849710485, 0.0 ], [ 78.021862578122793, 30.444673515976554, 0.0 ], [ 78.021813200897455, 30.44449730314405, 0.0 ], [ 78.021763396374027, 30.44432107963511, 0.0 ], [ 78.021711622247608, 30.444145181763286, 0.0 ], [ 78.021656480318285, 30.443970683199066, 0.0 ], [ 78.021596681041459, 30.443797926025344, 0.0 ], [ 78.0215305746745, 30.443627905115992, 0.0 ], [ 78.021456613608606, 30.443461029698952, 0.0 ], [ 78.021357797435854, 30.443304003181652, 0.0 ], [ 78.02123585567756, 30.443156051596713, 0.0 ], [ 78.021104722735018, 30.443013135716516, 0.0 ], [ 78.020975610272686, 30.442871077502346, 0.0 ], [ 78.020840732932726, 30.44273354256433, 0.0 ], [ 78.020702370060818, 30.442598513328448, 0.0 ], [ 78.020565406017155, 30.442462333659662, 0.0 ], [ 78.020433259241315, 30.442321978573975, 0.0 ], [ 78.020324349704282, 30.442168931247519, 0.0 ], [ 78.020292522861169, 30.44199045959806, 0.0 ], [ 78.020289998449726, 30.441810071183809, 0.0 ], [ 78.020349059814777, 30.441637222339061, 0.0 ], [ 78.020478668493851, 30.441491176433292, 0.0 ], [ 78.020660273461189, 30.441409926176636, 0.0 ], [ 78.020863862213261, 30.441357176186482, 0.0 ], [ 78.021071246490479, 30.441339381685232, 0.0 ], [ 78.02127750792846, 30.441344463385892, 0.0 ], [ 78.02148468162558, 30.441358799158817, 0.0 ], [ 78.021692461245223, 30.441378468179984, 0.0 ], [ 78.021900502478715, 30.441400728317273, 0.0 ], [ 78.022108519160724, 30.441420993677951, 0.0 ], [ 78.022316247573329, 30.441436744913823, 0.0 ], [ 78.022524136648883, 30.441452794378868, 0.0 ], [ 78.022732130071276, 30.441468256117425, 0.0 ], [ 78.022940079961032, 30.441479505109562, 0.0 ], [ 78.023147750487226, 30.441483137974505, 0.0 ], [ 78.023355688167641, 30.441477985824243, 0.0 ], [ 78.023564469765873, 30.441467532863523, 0.0 ], [ 78.023772696991287, 30.441450049074263, 0.0 ], [ 78.023979128518448, 30.441424323861458, 0.0 ], [ 78.024182456876957, 30.441388480498247, 0.0 ], [ 78.024383817650516, 30.441344465753065, 0.0 ], [ 78.024584078507218, 30.441294515164778, 0.0 ], [ 78.024783120300484, 30.441239808283708, 0.0 ], [ 78.024980670387535, 30.441180856529474, 0.0 ], [ 78.025176617607755, 30.441118542943805, 0.0 ], [ 78.025370860940555, 30.441053382864428, 0.0 ], [ 78.025564388057816, 30.440986507145777, 0.0 ], [ 78.02575731889651, 30.440916811110078, 0.0 ], [ 78.025948482970591, 30.440843527681331, 0.0 ], [ 78.026136809667307, 30.440765377137605, 0.0 ], [ 78.026321130517545, 30.440681594265232, 0.0 ], [ 78.026500369370282, 30.440591047123537, 0.0 ], [ 78.026674612578049, 30.440493735897881, 0.0 ], [ 78.026844865520729, 30.440390276918365, 0.0 ], [ 78.027012101451433, 30.440282241690401, 0.0 ], [ 78.027177043061315, 30.440171124759988, 0.0 ], [ 78.02734058586195, 30.44005835066104, 0.0 ], [ 78.027503616560395, 30.43994556556671, 0.0 ], [ 78.027664891658745, 30.439831631012119, 0.0 ], [ 78.027814931077771, 30.439705842024093, 0.0 ], [ 78.027969001424026, 30.439584872883255, 0.0 ], [ 78.028137819474765, 30.439477980462119, 0.0 ], [ 78.028318357580829, 30.439389454136027, 0.0 ], [ 78.028519687941127, 30.439340629905146, 0.0 ], [ 78.028726026998513, 30.439317776063749, 0.0 ], [ 78.028933006905959, 30.439296265754127, 0.0 ], [ 78.029139610650105, 30.439273121486202, 0.0 ], [ 78.029344595531001, 30.4392415180371, 0.0 ], [ 78.029548924552529, 30.43920339909825, 0.0 ], [ 78.029748991554953, 30.439154026503793, 0.0 ], [ 78.02994145605858, 30.439082613430205, 0.0 ], [ 78.03011019392919, 30.438978301964074, 0.0 ], [ 78.030260006789973, 30.438851396468451, 0.0 ], [ 78.030389477727326, 30.438709253242727, 0.0 ], [ 78.030498801225221, 30.438556750141291, 0.0 ], [ 78.03060682964832, 30.438393506679787, 0.0 ], [ 78.030698368381707, 30.438239859821085, 0.0 ], [ 78.030795058416444, 30.438079387162013, 0.0 ], [ 78.030893844541765, 30.437920069558192, 0.0 ], [ 78.030995143160595, 30.437762212277789, 0.0 ], [ 78.031096368371038, 30.437603984391085, 0.0 ], [ 78.031203957720734, 30.437449521148, 0.0 ], [ 78.031324856830921, 30.437303191186519, 0.0 ], [ 78.03146418773045, 30.437167550454273, 0.0 ], [ 78.031620391068088, 30.437049062722735, 0.0 ], [ 78.03179454433679, 30.436948713784421, 0.0 ], [ 78.031980840059632, 30.436866888129636, 0.0 ], [ 78.03217491734641, 30.436801122826388, 0.0 ], [ 78.032375105883176, 30.436747538132018, 0.0 ], [ 78.032577826251668, 30.436708859899756, 0.0 ], [ 78.032891669381641, 30.436708465500931, 0.0 ], [ 78.033095334413773, 30.436680815412046, 0.0 ], [ 78.033292317731252, 30.436620433370368, 0.0 ], [ 78.03349039978113, 30.436563179135327, 0.0 ], [ 78.033695446966135, 30.436534894893711, 0.0 ], [ 78.033903986771108, 30.436520799456627, 0.0 ], [ 78.034109469470678, 30.436495035995218, 0.0 ], [ 78.034304276594895, 30.436430466286261, 0.0 ], [ 78.034502947353928, 30.436376252126522, 0.0 ], [ 78.034702638312197, 30.43632494303186, 0.0 ], [ 78.034902647888288, 30.436274378545217, 0.0 ], [ 78.035102493404963, 30.436223589068415, 0.0 ], [ 78.035301945838825, 30.436171682917394, 0.0 ], [ 78.035500366508231, 30.436117239654696, 0.0 ], [ 78.035500920360917, 30.436117075065109, 0.0 ], [ 78.029222118000035, 30.434552645000061, 0.0 ], [ 78.02771783807772, 30.433525998428838, 0.0 ], [ 78.027493907231232, 30.433682585005965, 0.0 ], [ 78.027120448351326, 30.434130552099518, 0.0 ], [ 78.026797376188881, 30.434603676373854, 0.0 ], [ 78.026474278259315, 30.435170177459096, 0.0 ], [ 78.026047704336378, 30.435659926117701, 0.0 ], [ 78.025476008300359, 30.436172513660335, 0.0 ], [ 78.02486548087964, 30.436658135009068, 0.0 ], [ 78.024175946375934, 30.43693229068554, 0.0 ], [ 78.023421681117497, 30.437044359119806, 0.0 ], [ 78.022135788453326, 30.437169180372162, 0.0 ], [ 78.020835624963041, 30.43741829192799, 0.0 ], [ 78.019578560992969, 30.437704942434966, 0.0 ], [ 78.018623166851114, 30.438010076780401, 0.0 ], [ 78.018120298058207, 30.438321414931128, 0.0 ], [ 78.017746869443499, 30.438738399478108, 0.0 ], [ 78.017308799730287, 30.439740696558996, 0.0 ], [ 78.016899505738706, 30.440811173236874, 0.0 ], [ 78.016475912146504, 30.442504386867334, 0.0 ], [ 78.016159999991842, 30.443257411170691, 0.0 ], [ 78.015822397283557, 30.444016955814138, 0.0 ], [ 78.015362414661524, 30.444900246688448, 0.0 ], [ 78.015046706515946, 30.445106371839884, 0.0 ], [ 78.0147233918767, 30.445187250479492, 0.0 ], [ 78.014522253110712, 30.445187299265356, 0.0 ], [ 78.014134321789157, 30.445044111041945, 0.0 ], [ 78.013724758975528, 30.44486378345557, 0.0 ], [ 78.012826654023343, 30.444571201022445, 0.0 ], [ 78.011950249480634, 30.444565082046275, 0.0 ], [ 78.011131260688472, 30.444764464854494, 0.0 ], [ 78.010269119087695, 30.445156701579638, 0.0 ], [ 78.009033532806853, 30.445785483663016, 0.0 ], [ 78.007905641959724, 30.446408008018903, 0.0 ], [ 78.007144101144164, 30.446582235090073, 0.0 ], [ 78.006684292956734, 30.446600934686789, 0.0 ], [ 78.005800575784662, 30.446451509471565, 0.0 ], [ 78.00494563457066, 30.446208843509574, 0.0 ], [ 78.004033234442772, 30.446096941395243, 0.0 ], [ 78.003235746787837, 30.445941353512666, 0.0 ], [ 78.001956926853182, 30.445661148901596, 0.0 ], [ 78.001123536532603, 30.445667395676516, 0.0 ], [ 78.000376329871528, 30.44581059051286, 0.0 ], [ 77.999999962994565, 30.446011292493228, 0.0 ], [ 77.998819893995872, 30.44612855942033, 0.0 ], [ 77.99813568051249, 30.446694646753695, 0.0 ], [ 77.99748242454983, 30.447799474197893, 0.0 ], [ 77.996953613204369, 30.449497127452311, 0.0 ], [ 77.996482273415651, 30.450857903385401, 0.0 ], [ 77.9961389508221, 30.451536732967014, 0.0 ], [ 77.995566597080455, 30.452704136733736, 0.0 ], [ 77.994666197975405, 30.453768601524537, 0.0 ], [ 77.994650960415484, 30.455330700269915, 0.0 ], [ 77.994299948358986, 30.456694608631366, 0.0 ], [ 77.994071042169523, 30.457961229839196, 0.0 ], [ 77.993783813632305, 30.458588257805722, 0.0 ], [ 77.993269765675393, 30.459710421981971, 0.0 ], [ 77.992369384012648, 30.460873859526764, 0.0 ], [ 77.991117951697717, 30.462617448272503, 0.0 ], [ 77.99010306425501, 30.463584303452244, 0.0 ], [ 77.988309863656696, 30.464543804684666, 0.0 ], [ 77.987409482199212, 30.465022682465474, 0.0 ], [ 77.98595203759217, 30.465985845806291, 0.0 ], [ 77.983601817320789, 30.465865724593403, 0.0 ], [ 77.983410692714955, 30.465863927550355, 0.0 ], [ 77.996438345173729, 30.477670645368175, 0.0 ], [ 77.99660139776266, 30.47717111956301, 0.0 ], [ 77.996494592855441, 30.476194621513123, 0.0 ], [ 77.996952385826873, 30.475613067564215, 0.0 ], [ 77.996960047917213, 30.474636178438534, 0.0 ], [ 77.997082183030258, 30.47346711981325, 0.0 ], [ 77.997425559904926, 30.472200472632331, 0.0 ], [ 77.997174533363776, 30.470993339027256, 0.0 ], [ 77.997072759635216, 30.469847340823456, 0.0 ], [ 77.997378111088324, 30.468818653038458, 0.0 ], [ 77.997920980806839, 30.467878471593139, 0.0 ] ] ] ] } },
{ "type": "Feature", "properties": { "OBJECTID": 2939.0, "INDEX_": "SIWALIK Gp. (MIDDLE SIWALIK)", "AGE_CODE": 31.0, "AGE": "MIOCENE - PLIOCENE", "SUPERGROUP": null, "GROUP_": "SIWALIK", "GEOM_ID": 314.0, "STRATIGRAP": "314,SIWALIK Gp. (MIDDLE SIWALIK),MIOCENE - PLIOCENE" }, "geometry": { "type": "MultiPolygon", "coordinates": [ [ [ [ 78.012079766415411, 30.432506468478152, 0.0 ], [ 78.012120632164056, 30.432506461556844, 0.0 ], [ 78.014003532901071, 30.432187447706841, 0.0 ], [ 78.015496922389062, 30.431943415586197, 0.0 ], [ 78.016871234255774, 30.431849639360035, 0.0 ], [ 78.018007521100913, 30.431624226125734, 0.0 ], [ 78.018786572322668, 30.431296003033207, 0.0 ], [ 78.019085301466134, 30.431108167992086, 0.0 ], [ 78.01982666208464, 30.430642048735649, 0.0 ], [ 78.020323048390651, 30.430329951250815, 0.0 ], [ 78.02177295618749, 30.429476336705989, 0.0 ], [ 78.021779422339023, 30.429473126309418, 0.0 ], [ 77.99154792837794, 30.408840623568615, 0.0 ], [ 77.99071835505093, 30.409089453619934, 0.0 ], [ 77.989568978525057, 30.409673219615833, 0.0 ], [ 77.989362940403922, 30.410026685683803, 0.0 ], [ 77.988378585953782, 30.410978376639001, 0.0 ], [ 77.987638424814833, 30.411932300585857, 0.0 ], [ 77.98714239228876, 30.412887941980674, 0.0 ], [ 77.986402218055289, 30.413627915281531, 0.0 ], [ 77.985776567874382, 30.414476687853846, 0.0 ], [ 77.985158407791175, 30.415644029777148, 0.0 ], [ 77.984174081893414, 30.416489084940505, 0.0 ], [ 77.983189754344608, 30.417120411178459, 0.0 ], [ 77.982083274163884, 30.417856687168058, 0.0 ], [ 77.980854794294672, 30.418593158528488, 0.0 ], [ 77.978893715769772, 30.419640137985397, 0.0 ], [ 77.978031440073764, 30.420380333197631, 0.0 ], [ 77.977657584475111, 30.421231052445567, 0.0 ], [ 77.977405729962484, 30.422188687025823, 0.0 ], [ 77.977512600737299, 30.4233636976357, 0.0 ], [ 77.977138674216974, 30.424641554882562, 0.0 ], [ 77.976764761407722, 30.425385520698981, 0.0 ], [ 77.976146671303383, 30.426232567201165, 0.0 ], [ 77.975521007142461, 30.42772206697855, 0.0 ], [ 77.974895266158981, 30.428782795291113, 0.0 ], [ 77.974521345438816, 30.429633500596513, 0.0 ], [ 77.974269549856302, 30.430592826229578, 0.0 ], [ 77.974017775777298, 30.431443629871872, 0.0 ], [ 77.973888016712024, 30.432296378477201, 0.0 ], [ 77.974246663735386, 30.433154622186812, 0.0 ], [ 77.974605346597201, 30.433904271208959, 0.0 ], [ 77.974719784181062, 30.434758769945795, 0.0 ], [ 77.974475566454657, 30.43539780445839, 0.0 ], [ 77.97434588602178, 30.436250627961495, 0.0 ], [ 77.974338216158102, 30.436998204216707, 0.0 ], [ 77.974574761574871, 30.437854723536443, 0.0 ], [ 77.974933436552405, 30.438497549272373, 0.0 ], [ 77.975543838645095, 30.438716709236061, 0.0 ], [ 77.976642689518599, 30.439048769456448, 0.0 ], [ 77.97810779479525, 30.439168794475972, 0.0 ], [ 77.979198935924259, 30.439391986173984, 0.0 ], [ 77.980053583974268, 30.439935625577611, 0.0 ], [ 77.981022653645269, 30.440368806876798, 0.0 ], [ 77.981381295042468, 30.440218058126604, 0.0 ], [ 77.983395799020414, 30.439359642010636, 0.0 ], [ 77.985196571299355, 30.438400214901499, 0.0 ], [ 77.987211070469584, 30.437442745006752, 0.0 ], [ 77.989011891399741, 30.436484961734948, 0.0 ], [ 77.99046936116666, 30.435815539887482, 0.0 ], [ 77.991305345783829, 30.435228096736115, 0.0 ], [ 77.992297685346443, 30.434282341374445, 0.0 ], [ 77.993984584374289, 30.434024480352843, 0.0 ], [ 77.995406829706639, 30.433336606571086, 0.0 ], [ 77.997236248050825, 30.432155741233927, 0.0 ], [ 77.998376420936893, 30.431637898416589, 0.0 ], [ 77.999139605130154, 30.431414924533943, 0.0 ], [ 77.999999961759116, 30.431328633559488, 0.0 ], [ 78.001688494799168, 30.431569364073411, 0.0 ], [ 78.003549786253643, 30.431419105917538, 0.0 ], [ 78.006017148792282, 30.431362890087325, 0.0 ], [ 78.007835171241666, 30.431456695545659, 0.0 ], [ 78.009306945168134, 30.431906520346356, 0.0 ], [ 78.010139971801934, 30.43231885893816, 0.0 ], [ 78.010930244467119, 30.432506591534651, 0.0 ], [ 78.0114324689048, 30.432506576245814, 0.0 ], [ 78.012079766415411, 30.432506468478152, 0.0 ] ] ] ] } },
{ "type": "Feature", "properties": { "OBJECTID": 2940.0, "INDEX_": "SIWALIK Gp. (MIDDLE SIWALIK)", "AGE_CODE": 31.0, "AGE": "MIOCENE - PLIOCENE", "SUPERGROUP": null, "GROUP_": "SIWALIK", "GEOM_ID": 314.0, "STRATIGRAP": "314,SIWALIK Gp. (MIDDLE SIWALIK),MIOCENE - PLIOCENE" }, "geometry": { "type": "MultiPolygon", "coordinates": [ [ [ [ 77.957398659368735, 30.439145419122053, 0.0 ], [ 77.964304397592485, 30.448163805515719, 0.0 ], [ 77.965334115109343, 30.447775418154336, 0.0 ], [ 77.967234102905948, 30.447306280131329, 0.0 ], [ 77.968691574311109, 30.44653923408536, 0.0 ], [ 77.970149042404344, 30.446066263217379, 0.0 ], [ 77.973903299339369, 30.444145555241867, 0.0 ], [ 77.973552244669136, 30.442861601849106, 0.0 ], [ 77.972827415703762, 30.441999656035982, 0.0 ], [ 77.971614077714563, 30.440387695223329, 0.0 ], [ 77.970774709294204, 30.439098303397842, 0.0 ], [ 77.96992774945771, 30.438129196080247, 0.0 ], [ 77.969088386631, 30.436626078030308, 0.0 ], [ 77.968241413714225, 30.435231816604439, 0.0 ], [ 77.967402026797799, 30.433835584287831, 0.0 ], [ 77.966921259418029, 30.432870469010002, 0.0 ], [ 77.965585944197855, 30.431363552447358, 0.0 ], [ 77.964006388657182, 30.430600536471179, 0.0 ], [ 77.962297149808052, 30.430476593476378, 0.0 ], [ 77.961068606435163, 30.430999218475211, 0.0 ], [ 77.960450542452136, 30.432166722062707, 0.0 ], [ 77.960435255424059, 30.433768834421041, 0.0 ], [ 77.960183446785408, 30.434726426487572, 0.0 ], [ 77.958939692478396, 30.437383622610707, 0.0 ], [ 77.957947679120437, 30.438335320093127, 0.0 ], [ 77.957398659368735, 30.439145419122053, 0.0 ] ] ] ] } },
{ "type": "Feature", "properties": { "OBJECTID": 2961.0, "INDEX_": "JAUNSAR Gp", "AGE_CODE": 91.0, "AGE": "NEOPROTEROZOIC", "SUPERGROUP": null, "GROUP_": "JAUNSAR", "GEOM_ID": 917.0, "STRATIGRAP": "917,JAUNSAR Gp,NEOPROTEROZOIC" }, "geometry": { "type": "MultiPolygon", "coordinates": [ [ [ [ 78.02771783807772, 30.433525998428838, 0.0 ], [ 78.022536267191683, 30.429989660606886, 0.0 ], [ 78.01982666208464, 30.430642048735649, 0.0 ], [ 78.019085301466134, 30.431108167992086, 0.0 ], [ 78.018786572322668, 30.431296003033207, 0.0 ], [ 78.018007521100913, 30.431624226125734, 0.0 ], [ 78.016871234255774, 30.431849639360035, 0.0 ], [ 78.015496922389062, 30.431943415586197, 0.0 ], [ 78.014003532901071, 30.432187447706841, 0.0 ], [ 78.012120632164056, 30.432506461556844, 0.0 ], [ 78.012079766415411, 30.432506468478152, 0.0 ], [ 78.004248480149812, 30.434390756585742, 0.0 ], [ 77.968310032710491, 30.451710546240655, 0.0 ], [ 77.967998381716228, 30.451896038288865, 0.0 ], [ 77.983410692714955, 30.465863927550355, 0.0 ], [ 77.983601817320789, 30.465865724593403, 0.0 ], [ 77.98595203759217, 30.465985845806291, 0.0 ], [ 77.987409482199212, 30.465022682465474, 0.0 ], [ 77.988309863656696, 30.464543804684666, 0.0 ], [ 77.99010306425501, 30.463584303452244, 0.0 ], [ 77.991117951697717, 30.462617448272503, 0.0 ], [ 77.992369384012648, 30.460873859526764, 0.0 ], [ 77.993269765675393, 30.459710421981971, 0.0 ], [ 77.993783813632305, 30.458588257805722, 0.0 ], [ 77.994071042169523, 30.457961229839196, 0.0 ], [ 77.994299948358986, 30.456694608631366, 0.0 ], [ 77.994650960415484, 30.455330700269915, 0.0 ], [ 77.994666197975405, 30.453768601524537, 0.0 ], [ 77.995566597080455, 30.452704136733736, 0.0 ], [ 77.9961389508221, 30.451536732967014, 0.0 ], [ 77.996482273415651, 30.450857903385401, 0.0 ], [ 77.996953613204369, 30.449497127452311, 0.0 ], [ 77.99748242454983, 30.447799474197893, 0.0 ], [ 77.99813568051249, 30.446694646753695, 0.0 ], [ 77.998819893995872, 30.44612855942033, 0.0 ], [ 77.999999962994565, 30.446011292493228, 0.0 ], [ 78.000376329871528, 30.44581059051286, 0.0 ], [ 78.001123536532603, 30.445667395676516, 0.0 ], [ 78.001956926853182, 30.445661148901596, 0.0 ], [ 78.003235746787837, 30.445941353512666, 0.0 ], [ 78.004033234442772, 30.446096941395243, 0.0 ], [ 78.00494563457066, 30.446208843509574, 0.0 ], [ 78.005800575784662, 30.446451509471565, 0.0 ], [ 78.006684292956734, 30.446600934686789, 0.0 ], [ 78.007144101144164, 30.446582235090073, 0.0 ], [ 78.007905641959724, 30.446408008018903, 0.0 ], [ 78.009033532806853, 30.445785483663016, 0.0 ], [ 78.010269119087695, 30.445156701579638, 0.0 ], [ 78.011131260688472, 30.444764464854494, 0.0 ], [ 78.011950249480634, 30.444565082046275, 0.0 ], [ 78.012826654023343, 30.444571201022445, 0.0 ], [ 78.013724758975528, 30.44486378345557, 0.0 ], [ 78.014134321789157, 30.445044111041945, 0.0 ], [ 78.014522253110712, 30.445187299265356, 0.0 ], [ 78.0147233918767, 30.445187250479492, 0.0 ], [ 78.015046706515946, 30.445106371839884, 0.0 ], [ 78.015362414661524, 30.444900246688448, 0.0 ], [ 78.015822397283557, 30.444016955814138, 0.0 ], [ 78.016159999991842, 30.443257411170691, 0.0 ], [ 78.016475912146504, 30.442504386867334, 0.0 ], [ 78.016899505738706, 30.440811173236874, 0.0 ], [ 78.017308799730287, 30.439740696558996, 0.0 ], [ 78.017746869443499, 30.438738399478108, 0.0 ], [ 78.018120298058207, 30.438321414931128, 0.0 ], [ 78.018623166851114, 30.438010076780401, 0.0 ], [ 78.019578560992969, 30.437704942434966, 0.0 ], [ 78.020835624963041, 30.43741829192799, 0.0 ], [ 78.022135788453326, 30.437169180372162, 0.0 ], [ 78.023421681117497, 30.437044359119806, 0.0 ], [ 78.024175946375934, 30.43693229068554, 0.0 ], [ 78.02486548087964, 30.436658135009068, 0.0 ], [ 78.025476008300359, 30.436172513660335, 0.0 ], [ 78.026047704336378, 30.435659926117701, 0.0 ], [ 78.026474278259315, 30.435170177459096, 0.0 ], [ 78.026797376188881, 30.434603676373854, 0.0 ], [ 78.027120448351326, 30.434130552099518, 0.0 ], [ 78.027493907231232, 30.433682585005965, 0.0 ], [ 78.02771783807772, 30.433525998428838, 0.0 ] ] ] ] } },
{ "type": "Feature", "properties": { "OBJECTID": 2211.0, "INDEX_": "UNDIFF.FLUVIAL / AEOLIAN / COASTA & GLACIAL  SEDIMENTS", "AGE_CODE": 28.0, "AGE": "QUATERNARY", "SUPERGROUP": null, "GROUP_": null, "GEOM_ID": 289.0, "STRATIGRAP": "289,UNDIFF.FLUVIAL / AEOLIAN / COASTA & GLACIAL  SEDIMENTS,QUATERNARY" }, "geometry": { "type": "MultiPolygon", "coordinates": [ [ [ [ 78.022536267191683, 30.429989660606886, 0.0 ], [ 78.021779422339023, 30.429473126309418, 0.0 ], [ 78.02177295618749, 30.429476336705989, 0.0 ], [ 78.020323048390651, 30.430329951250815, 0.0 ], [ 78.01982666208464, 30.430642048735649, 0.0 ], [ 78.022536267191683, 30.429989660606886, 0.0 ] ] ], [ [ [ 77.968310032710491, 30.451710546240655, 0.0 ], [ 78.004248480149812, 30.434390756585742, 0.0 ], [ 78.012079766415411, 30.432506468478152, 0.0 ], [ 78.0114324689048, 30.432506576245814, 0.0 ], [ 78.010930244467119, 30.432506591534651, 0.0 ], [ 78.010139971801934, 30.43231885893816, 0.0 ], [ 78.009306945168134, 30.431906520346356, 0.0 ], [ 78.007835171241666, 30.431456695545659, 0.0 ], [ 78.006017148792282, 30.431362890087325, 0.0 ], [ 78.003549786253643, 30.431419105917538, 0.0 ], [ 78.001688494799168, 30.431569364073411, 0.0 ], [ 77.999999961759116, 30.431328633559488, 0.0 ], [ 77.999139605130154, 30.431414924533943, 0.0 ], [ 77.998376420936893, 30.431637898416589, 0.0 ], [ 77.997236248050825, 30.432155741233927, 0.0 ], [ 77.995406829706639, 30.433336606571086, 0.0 ], [ 77.993984584374289, 30.434024480352843, 0.0 ], [ 77.992297685346443, 30.434282341374445, 0.0 ], [ 77.991305345783829, 30.435228096736115, 0.0 ], [ 77.99046936116666, 30.435815539887482, 0.0 ], [ 77.989011891399741, 30.436484961734948, 0.0 ], [ 77.987211070469584, 30.437442745006752, 0.0 ], [ 77.985196571299355, 30.438400214901499, 0.0 ], [ 77.983395799020414, 30.439359642010636, 0.0 ], [ 77.981381295042468, 30.440218058126604, 0.0 ], [ 77.981022653645269, 30.440368806876798, 0.0 ], [ 77.980053583974268, 30.439935625577611, 0.0 ], [ 77.979198935924259, 30.439391986173984, 0.0 ], [ 77.97810779479525, 30.439168794475972, 0.0 ], [ 77.976642689518599, 30.439048769456448, 0.0 ], [ 77.975543838645095, 30.438716709236061, 0.0 ], [ 77.974933436552405, 30.438497549272373, 0.0 ], [ 77.974574761574871, 30.437854723536443, 0.0 ], [ 77.974338216158102, 30.436998204216707, 0.0 ], [ 77.97434588602178, 30.436250627961495, 0.0 ], [ 77.974475566454657, 30.43539780445839, 0.0 ], [ 77.974719784181062, 30.434758769945795, 0.0 ], [ 77.974605346597201, 30.433904271208959, 0.0 ], [ 77.974246663735386, 30.433154622186812, 0.0 ], [ 77.973888016712024, 30.432296378477201, 0.0 ], [ 77.974017775777298, 30.431443629871872, 0.0 ], [ 77.974269549856302, 30.430592826229578, 0.0 ], [ 77.974521345438816, 30.429633500596513, 0.0 ], [ 77.974895266158981, 30.428782795291113, 0.0 ], [ 77.975521007142461, 30.42772206697855, 0.0 ], [ 77.976146671303383, 30.426232567201165, 0.0 ], [ 77.976764761407722, 30.425385520698981, 0.0 ], [ 77.977138674216974, 30.424641554882562, 0.0 ], [ 77.977512600737299, 30.4233636976357, 0.0 ], [ 77.977405729962484, 30.422188687025823, 0.0 ], [ 77.977657584475111, 30.421231052445567, 0.0 ], [ 77.978031440073764, 30.420380333197631, 0.0 ], [ 77.978893715769772, 30.419640137985397, 0.0 ], [ 77.980854794294672, 30.418593158528488, 0.0 ], [ 77.982083274163884, 30.417856687168058, 0.0 ], [ 77.983189754344608, 30.417120411178459, 0.0 ], [ 77.984174081893414, 30.416489084940505, 0.0 ], [ 77.985158407791175, 30.415644029777148, 0.0 ], [ 77.985776567874382, 30.414476687853846, 0.0 ], [ 77.986402218055289, 30.413627915281531, 0.0 ], [ 77.98714239228876, 30.412887941980674, 0.0 ], [ 77.987638424814833, 30.411932300585857, 0.0 ], [ 77.988378585953782, 30.410978376639001, 0.0 ], [ 77.989362940403922, 30.410026685683803, 0.0 ], [ 77.989568978525057, 30.409673219615833, 0.0 ], [ 77.99071835505093, 30.409089453619934, 0.0 ], [ 77.99154792837794, 30.408840623568615, 0.0 ], [ 77.973599148000048, 30.396590873000044, 0.0 ], [ 77.954057508000091, 30.352890659000046, 0.0 ], [ 77.951166244000063, 30.328819686000056, 0.0 ], [ 77.921498142000061, 30.336577878000085, 0.0 ], [ 77.935148471000076, 30.410088309000031, 0.0 ], [ 77.957398659368735, 30.439145419122053, 0.0 ], [ 77.957947679120437, 30.438335320093127, 0.0 ], [ 77.958939692478396, 30.437383622610707, 0.0 ], [ 77.960183446785408, 30.434726426487572, 0.0 ], [ 77.960435255424059, 30.433768834421041, 0.0 ], [ 77.960450542452136, 30.432166722062707, 0.0 ], [ 77.961068606435163, 30.430999218475211, 0.0 ], [ 77.962297149808052, 30.430476593476378, 0.0 ], [ 77.964006388657182, 30.430600536471179, 0.0 ], [ 77.965585944197855, 30.431363552447358, 0.0 ], [ 77.966921259418029, 30.432870469010002, 0.0 ], [ 77.967402026797799, 30.433835584287831, 0.0 ], [ 77.968241413714225, 30.435231816604439, 0.0 ], [ 77.969088386631, 30.436626078030308, 0.0 ], [ 77.96992774945771, 30.438129196080247, 0.0 ], [ 77.970774709294204, 30.439098303397842, 0.0 ], [ 77.971614077714563, 30.440387695223329, 0.0 ], [ 77.972827415703762, 30.441999656035982, 0.0 ], [ 77.973552244669136, 30.442861601849106, 0.0 ], [ 77.973903299339369, 30.444145555241867, 0.0 ], [ 77.970149042404344, 30.446066263217379, 0.0 ], [ 77.968691574311109, 30.44653923408536, 0.0 ], [ 77.967234102905948, 30.447306280131329, 0.0 ], [ 77.965334115109343, 30.447775418154336, 0.0 ], [ 77.964304397592485, 30.448163805515719, 0.0 ], [ 77.965266361, 30.449420059000069, 0.0 ], [ 77.967998381716228, 30.451896038288865, 0.0 ], [ 77.968310032710491, 30.451710546240655, 0.0 ] ] ] ] } }
]
}
